<?xml version="1.0" encoding="UTF-8"?>
<ndm xmlns:xsi="http://www.w3.org/2001/XMLSchema-instance" xsi:noNamespaceSchemaLocation="https://sanaregistry.org/r/ndmxml_unqualified/ndmxml-2.0.0-master-2.0.xsd">
<omm id="CCSDS_OMM_VERS" version="2.0">
<header><CREATION_DATE/><ORIGINATOR/></header><body><segment><metadata><OBJECT_NAME>ORBCOMM FM06</OBJECT_NAME><OBJECT_ID>1997-084G</OBJECT_ID><CENTER_NAME>EARTH</CENTER_NAME><REF_FRAME>TEME</REF_FRAME><TIME_SYSTEM>UTC</TIME_SYSTEM><MEAN_ELEMENT_THEORY>SGP4</MEAN_ELEMENT_THEORY></metadata><data><meanElements><EPOCH>2024-11-03T22:02:17.594016</EPOCH><MEAN_MOTION>14.44449826</MEAN_MOTION><ECCENTRICITY>.0002751</ECCENTRICITY><INCLINATION>45.0156</INCLINATION><RA_OF_ASC_NODE>8.4637</RA_OF_ASC_NODE><ARG_OF_PERICENTER>241.9306</ARG_OF_PERICENTER><MEAN_ANOMALY>287.5262</MEAN_ANOMALY></meanElements><tleParameters><EPHEMERIS_TYPE>0</EPHEMERIS_TYPE><CLASSIFICATION_TYPE>U</CLASSIFICATION_TYPE><NORAD_CAT_ID>25118</NORAD_CAT_ID><ELEMENT_SET_NO>999</ELEMENT_SET_NO><REV_AT_EPOCH>40896</REV_AT_EPOCH><BSTAR>.26916E-2</BSTAR><MEAN_MOTION_DOT>.9244E-4</MEAN_MOTION_DOT><MEAN_MOTION_DDOT>0</MEAN_MOTION_DDOT></tleParameters></data></segment></body></omm>
<omm id="CCSDS_OMM_VERS" version="2.0">
<header><CREATION_DATE/><ORIGINATOR/></header><body><segment><metadata><OBJECT_NAME>ORBCOMM FM07</OBJECT_NAME><OBJECT_ID>1997-084H</OBJECT_ID><CENTER_NAME>EARTH</CENTER_NAME><REF_FRAME>TEME</REF_FRAME><TIME_SYSTEM>UTC</TIME_SYSTEM><MEAN_ELEMENT_THEORY>SGP4</MEAN_ELEMENT_THEORY></metadata><data><meanElements><EPOCH>2024-11-04T05:38:31.540992</EPOCH><MEAN_MOTION>14.44338291</MEAN_MOTION><ECCENTRICITY>.0003078</ECCENTRICITY><INCLINATION>45.0153</INCLINATION><RA_OF_ASC_NODE>7.6125</RA_OF_ASC_NODE><ARG_OF_PERICENTER>207.9468</ARG_OF_PERICENTER><MEAN_ANOMALY>152.1218</MEAN_ANOMALY></meanElements><tleParameters><EPHEMERIS_TYPE>0</EPHEMERIS_TYPE><CLASSIFICATION_TYPE>U</CLASSIFICATION_TYPE><NORAD_CAT_ID>25119</NORAD_CAT_ID><ELEMENT_SET_NO>999</ELEMENT_SET_NO><REV_AT_EPOCH>40899</REV_AT_EPOCH><BSTAR>.27145E-2</BSTAR><MEAN_MOTION_DOT>.9302E-4</MEAN_MOTION_DOT><MEAN_MOTION_DDOT>0</MEAN_MOTION_DDOT></tleParameters></data></segment></body></omm>
<omm id="CCSDS_OMM_VERS" version="2.0">
<header><CREATION_DATE/><ORIGINATOR/></header><body><segment><metadata><OBJECT_NAME>ORBCOMM FM03</OBJECT_NAME><OBJECT_ID>1998-007B</OBJECT_ID><CENTER_NAME>EARTH</CENTER_NAME><REF_FRAME>TEME</REF_FRAME><TIME_SYSTEM>UTC</TIME_SYSTEM><MEAN_ELEMENT_THEORY>SGP4</MEAN_ELEMENT_THEORY></metadata><data><meanElements><EPOCH>2024-11-04T03:42:07.250976</EPOCH><MEAN_MOTION>14.33275357</MEAN_MOTION><ECCENTRICITY>.0048673</ECCENTRICITY><INCLINATION>107.9672</INCLINATION><RA_OF_ASC_NODE>33.6607</RA_OF_ASC_NODE><ARG_OF_PERICENTER>281.0005</ARG_OF_PERICENTER><MEAN_ANOMALY>78.5661</MEAN_ANOMALY></meanElements><tleParameters><EPHEMERIS_TYPE>0</EPHEMERIS_TYPE><CLASSIFICATION_TYPE>U</CLASSIFICATION_TYPE><NORAD_CAT_ID>25158</NORAD_CAT_ID><ELEMENT_SET_NO>999</ELEMENT_SET_NO><REV_AT_EPOCH>39192</REV_AT_EPOCH><BSTAR>.22191E-2</BSTAR><MEAN_MOTION_DOT>.6074E-4</MEAN_MOTION_DOT><MEAN_MOTION_DDOT>0</MEAN_MOTION_DDOT></tleParameters></data></segment></body></omm>
<omm id="CCSDS_OMM_VERS" version="2.0">
<header><CREATION_DATE/><ORIGINATOR/></header><body><segment><metadata><OBJECT_NAME>ORBCOMM FM04</OBJECT_NAME><OBJECT_ID>1998-007C</OBJECT_ID><CENTER_NAME>EARTH</CENTER_NAME><REF_FRAME>TEME</REF_FRAME><TIME_SYSTEM>UTC</TIME_SYSTEM><MEAN_ELEMENT_THEORY>SGP4</MEAN_ELEMENT_THEORY></metadata><data><meanElements><EPOCH>2024-11-04T04:18:18.958176</EPOCH><MEAN_MOTION>14.33550338</MEAN_MOTION><ECCENTRICITY>.0044333</ECCENTRICITY><INCLINATION>107.9657</INCLINATION><RA_OF_ASC_NODE>36.7741</RA_OF_ASC_NODE><ARG_OF_PERICENTER>278.5043</ARG_OF_PERICENTER><MEAN_ANOMALY>81.1074</MEAN_ANOMALY></meanElements><tleParameters><EPHEMERIS_TYPE>0</EPHEMERIS_TYPE><CLASSIFICATION_TYPE>U</CLASSIFICATION_TYPE><NORAD_CAT_ID>25159</NORAD_CAT_ID><ELEMENT_SET_NO>999</ELEMENT_SET_NO><REV_AT_EPOCH>39207</REV_AT_EPOCH><BSTAR>.24066E-2</BSTAR><MEAN_MOTION_DOT>.6621E-4</MEAN_MOTION_DOT><MEAN_MOTION_DDOT>0</MEAN_MOTION_DDOT></tleParameters></data></segment></body></omm>
<omm id="CCSDS_OMM_VERS" version="2.0">
<header><CREATION_DATE/><ORIGINATOR/></header><body><segment><metadata><OBJECT_NAME>ORBCOMM FM17</OBJECT_NAME><OBJECT_ID>1998-046A</OBJECT_ID><CENTER_NAME>EARTH</CENTER_NAME><REF_FRAME>TEME</REF_FRAME><TIME_SYSTEM>UTC</TIME_SYSTEM><MEAN_ELEMENT_THEORY>SGP4</MEAN_ELEMENT_THEORY></metadata><data><meanElements><EPOCH>2024-11-04T04:50:22.928064</EPOCH><MEAN_MOTION>14.34114874</MEAN_MOTION><ECCENTRICITY>.0000885</ECCENTRICITY><INCLINATION>44.9936</INCLINATION><RA_OF_ASC_NODE>238.7189</RA_OF_ASC_NODE><ARG_OF_PERICENTER>177.2961</ARG_OF_PERICENTER><MEAN_ANOMALY>182.7890</MEAN_ANOMALY></meanElements><tleParameters><EPHEMERIS_TYPE>0</EPHEMERIS_TYPE><CLASSIFICATION_TYPE>U</CLASSIFICATION_TYPE><NORAD_CAT_ID>25413</NORAD_CAT_ID><ELEMENT_SET_NO>999</ELEMENT_SET_NO><REV_AT_EPOCH>37103</REV_AT_EPOCH><BSTAR>.22829E-2</BSTAR><MEAN_MOTION_DOT>.631E-4</MEAN_MOTION_DOT><MEAN_MOTION_DDOT>0</MEAN_MOTION_DDOT></tleParameters></data></segment></body></omm>
<omm id="CCSDS_OMM_VERS" version="2.0">
<header><CREATION_DATE/><ORIGINATOR/></header><body><segment><metadata><OBJECT_NAME>ORBCOMM FM18</OBJECT_NAME><OBJECT_ID>1998-046B</OBJECT_ID><CENTER_NAME>EARTH</CENTER_NAME><REF_FRAME>TEME</REF_FRAME><TIME_SYSTEM>UTC</TIME_SYSTEM><MEAN_ELEMENT_THEORY>SGP4</MEAN_ELEMENT_THEORY></metadata><data><meanElements><EPOCH>2024-11-03T21:45:17.108064</EPOCH><MEAN_MOTION>14.37204113</MEAN_MOTION><ECCENTRICITY>.000415</ECCENTRICITY><INCLINATION>44.9908</INCLINATION><RA_OF_ASC_NODE>163.2416</RA_OF_ASC_NODE><ARG_OF_PERICENTER>217.8230</ARG_OF_PERICENTER><MEAN_ANOMALY>142.2326</MEAN_ANOMALY></meanElements><tleParameters><EPHEMERIS_TYPE>0</EPHEMERIS_TYPE><CLASSIFICATION_TYPE>U</CLASSIFICATION_TYPE><NORAD_CAT_ID>25414</NORAD_CAT_ID><ELEMENT_SET_NO>999</ELEMENT_SET_NO><REV_AT_EPOCH>37199</REV_AT_EPOCH><BSTAR>.23971E-2</BSTAR><MEAN_MOTION_DOT>.7067E-4</MEAN_MOTION_DOT><MEAN_MOTION_DDOT>0</MEAN_MOTION_DDOT></tleParameters></data></segment></body></omm>
<omm id="CCSDS_OMM_VERS" version="2.0">
<header><CREATION_DATE/><ORIGINATOR/></header><body><segment><metadata><OBJECT_NAME>ORBCOMM FM19</OBJECT_NAME><OBJECT_ID>1998-046C</OBJECT_ID><CENTER_NAME>EARTH</CENTER_NAME><REF_FRAME>TEME</REF_FRAME><TIME_SYSTEM>UTC</TIME_SYSTEM><MEAN_ELEMENT_THEORY>SGP4</MEAN_ELEMENT_THEORY></metadata><data><meanElements><EPOCH>2024-11-03T21:30:20.952576</EPOCH><MEAN_MOTION>14.37028650</MEAN_MOTION><ECCENTRICITY>.0003019</ECCENTRICITY><INCLINATION>44.9916</INCLINATION><RA_OF_ASC_NODE>164.9456</RA_OF_ASC_NODE><ARG_OF_PERICENTER>206.2623</ARG_OF_PERICENTER><MEAN_ANOMALY>167.9930</MEAN_ANOMALY></meanElements><tleParameters><EPHEMERIS_TYPE>0</EPHEMERIS_TYPE><CLASSIFICATION_TYPE>U</CLASSIFICATION_TYPE><NORAD_CAT_ID>25415</NORAD_CAT_ID><ELEMENT_SET_NO>999</ELEMENT_SET_NO><REV_AT_EPOCH>37198</REV_AT_EPOCH><BSTAR>.24023E-2</BSTAR><MEAN_MOTION_DOT>.7057E-4</MEAN_MOTION_DOT><MEAN_MOTION_DDOT>0</MEAN_MOTION_DDOT></tleParameters></data></segment></body></omm>

</ndm>
