ORBCOMM FM06            
1 25118U 97084G   24308.91825919  .00009244  00000+0  26916-2 0  9990
2 25118  45.0156   8.4637 0002751 241.9306 287.5262 14.44449826408963
ORBCOMM FM07            
1 25119U 97084H   24309.23508728  .00009302  00000+0  27145-2 0  9993
2 25119  45.0153   7.6125 0003078 207.9468 152.1218 14.44338291408992
ORBCOMM FM03            
1 25158U 98007B   24309.15425059  .00006074  00000+0  22191-2 0  9997
2 25158 107.9672  33.6607 0048673 281.0005  78.5661 14.33275357391921
ORBCOMM FM04            
1 25159U 98007C   24309.17938609  .00006621  00000+0  24066-2 0  9991
2 25159 107.9657  36.7741 0044333 278.5043  81.1074 14.33550338392070
ORBCOMM FM17            
1 25413U 98046A   24309.20165426  .00006310  00000+0  22829-2 0  9990
2 25413  44.9936 238.7189 0000885 177.2961 182.7890 14.34114874371030
ORBCOMM FM18            
1 25414U 98046B   24308.90644801  .00007067  00000+0  23971-2 0  9995
2 25414  44.9908 163.2416 0004150 217.8230 142.2326 14.37204113371993
ORBCOMM FM19            
1 25415U 98046C   24308.89607584  .00007057  00000+0  24023-2 0  9999
2 25415  44.9916 164.9456 0003019 206.2623 167.9930 14.37028650371980
